[
  {
    "OBJECT_NAME": "STARLINK-34441",
    "OBJECT_ID": "25129U",
    "EPOCH": "2025-11-11T07:18:07.542144",
    "MEAN_MOTION": 14.98327208,
    "ECCENTRICITY": 0.0003035,
    "INCLINATION": 70.002,
    "RA_OF_ASC_NODE": 12.9779,
    "ARG_OF_PERICENTER": 267.1335,
    "MEAN_ANOMALY": 92.9476,
    "EPHEMERIS_TYPE": 0,
    "CLASSIFICATION_TYPE": "U",
    "NORAD_CAT_ID": 64430,
    "ELEMENT_SET_NO": 999,
    "REV_AT_EPOCH": 2355,
    "BSTAR": 0.0008199699999999999,
    "MEAN_MOTION_DOT": 9.704e-05,
    "MEAN_MOTION_DDOT": 0.0,
    "TLE_LINE1": "1 64430U 25129U   25315.30425396  .00009704  00000+0  81997-3 0  9990",
    "TLE_LINE2": "2 64430  70.0020  12.9779 0003035 267.1335  92.9476 14.98327208 23557",
    "COMMENT": "Grouped by shell and plane from TLE"
  },
  {
    "OBJECT_NAME": "STARLINK-34524",
    "OBJECT_ID": "25129V",
    "EPOCH": "2025-11-11T06:54:05.275584",
    "MEAN_MOTION": 14.98335771,
    "ECCENTRICITY": 0.0003,
    "INCLINATION": 70.0024,
    "RA_OF_ASC_NODE": 12.9173,
    "ARG_OF_PERICENTER": 267.1958,
    "MEAN_ANOMALY": 92.8857,
    "EPHEMERIS_TYPE": 0,
    "CLASSIFICATION_TYPE": "U",
    "NORAD_CAT_ID": 64431,
    "ELEMENT_SET_NO": 999,
    "REV_AT_EPOCH": 2349,
    "BSTAR": 0.00047344000000000005,
    "MEAN_MOTION_DOT": 5.561e-05,
    "MEAN_MOTION_DDOT": 0.0,
    "TLE_LINE1": "1 64431U 25129V   25315.28756106  .00005561  00000+0  47344-3 0  9999",
    "TLE_LINE2": "2 64431  70.0024  12.9173 0003000 267.1958  92.8857 14.98335771 23492",
    "COMMENT": "Grouped by shell and plane from TLE"
  },
  {
    "OBJECT_NAME": "STARLINK-34506",
    "OBJECT_ID": "25129W",
    "EPOCH": "2025-11-11T06:30:03.059136",
    "MEAN_MOTION": 14.98331709,
    "ECCENTRICITY": 0.0003079,
    "INCLINATION": 70.0025,
    "RA_OF_ASC_NODE": 12.8581,
    "ARG_OF_PERICENTER": 272.8998,
    "MEAN_ANOMALY": 87.1808,
    "EPHEMERIS_TYPE": 0,
    "CLASSIFICATION_TYPE": "U",
    "NORAD_CAT_ID": 64432,
    "ELEMENT_SET_NO": 999,
    "REV_AT_EPOCH": 2349,
    "BSTAR": 0.00021476,
    "MEAN_MOTION_DOT": 2.47e-05,
    "MEAN_MOTION_DDOT": 0.0,
    "TLE_LINE1": "1 64432U 25129W   25315.27086874  .00002470  00000+0  21476-3 0  9991",
    "TLE_LINE2": "2 64432  70.0025  12.8581 0003079 272.8998  87.1808 14.98331709 23499",
    "COMMENT": "Grouped by shell and plane from TLE"
  },
  {
    "OBJECT_NAME": "STARLINK-34451",
    "OBJECT_ID": "25129X",
    "EPOCH": "2025-11-11T06:12:18.385632",
    "MEAN_MOTION": 14.98355835,
    "ECCENTRICITY": 0.0003247,
    "INCLINATION": 70.0019,
    "RA_OF_ASC_NODE": 13.2159,
    "ARG_OF_PERICENTER": 274.293,
    "MEAN_ANOMALY": 85.7858,
    "EPHEMERIS_TYPE": 0,
    "CLASSIFICATION_TYPE": "U",
    "NORAD_CAT_ID": 64433,
    "ELEMENT_SET_NO": 999,
    "REV_AT_EPOCH": 2348,
    "BSTAR": 0.0012037,
    "MEAN_MOTION_DOT": 0.00014309,
    "MEAN_MOTION_DDOT": 0.0,
    "TLE_LINE1": "1 64433U 25129X   25315.25854613  .00014309  00000+0  12037-2 0  9990",
    "TLE_LINE2": "2 64433  70.0019  13.2159 0003247 274.2930  85.7858 14.98355835 23482",
    "COMMENT": "Grouped by shell and plane from TLE"
  },
  {
    "OBJECT_NAME": "STARLINK-34472",
    "OBJECT_ID": "25129Y",
    "EPOCH": "2025-11-11T07:24:22.744512",
    "MEAN_MOTION": 14.98339731,
    "ECCENTRICITY": 0.0003024,
    "INCLINATION": 70.0025,
    "RA_OF_ASC_NODE": 12.9902,
    "ARG_OF_PERICENTER": 268.1204,
    "MEAN_ANOMALY": 91.9609,
    "EPHEMERIS_TYPE": 0,
    "CLASSIFICATION_TYPE": "U",
    "NORAD_CAT_ID": 64434,
    "ELEMENT_SET_NO": 999,
    "REV_AT_EPOCH": 2355,
    "BSTAR": 0.00054862,
    "MEAN_MOTION_DOT": 6.461e-05,
    "MEAN_MOTION_DDOT": 0.0,
    "TLE_LINE1": "1 64434U 25129Y   25315.30859658  .00006461  00000+0  54862-3 0  9994",
    "TLE_LINE2": "2 64434  70.0025  12.9902 0003024 268.1204  91.9609 14.98339731 23559",
    "COMMENT": "Grouped by shell and plane from TLE"
  },
  {
    "OBJECT_NAME": "STARLINK-34478",
    "OBJECT_ID": "25129Z",
    "EPOCH": "2025-11-11T07:00:20.250720",
    "MEAN_MOTION": 14.98345797,
    "ECCENTRICITY": 0.0003241,
    "INCLINATION": 70.0021,
    "RA_OF_ASC_NODE": 12.9307,
    "ARG_OF_PERICENTER": 275.4442,
    "MEAN_ANOMALY": 84.6347,
    "EPHEMERIS_TYPE": 0,
    "CLASSIFICATION_TYPE": "U",
    "NORAD_CAT_ID": 64435,
    "ELEMENT_SET_NO": 999,
    "REV_AT_EPOCH": 2349,
    "BSTAR": 0.0011656,
    "MEAN_MOTION_DOT": 0.00013848,
    "MEAN_MOTION_DDOT": 0.0,
    "TLE_LINE1": "1 64435U 25129Z   25315.29190105  .00013848  00000+0  11656-2 0  9998",
    "TLE_LINE2": "2 64435  70.0021  12.9307 0003241 275.4442  84.6347 14.98345797 23491",
    "COMMENT": "Grouped by shell and plane from TLE"
  },
  {
    "OBJECT_NAME": "STARLINK-34396",
    "OBJECT_ID": "25129AA",
    "EPOCH": "2025-11-11T07:36:23.990112",
    "MEAN_MOTION": 14.98338335,
    "ECCENTRICITY": 0.0002965,
    "INCLINATION": 70.0027,
    "RA_OF_ASC_NODE": 13.0118,
    "ARG_OF_PERICENTER": 267.5728,
    "MEAN_ANOMALY": 92.5092,
    "EPHEMERIS_TYPE": 0,
    "CLASSIFICATION_TYPE": "U",
    "NORAD_CAT_ID": 64436,
    "ELEMENT_SET_NO": 999,
    "REV_AT_EPOCH": 2349,
    "BSTAR": 0.00038202000000000006,
    "MEAN_MOTION_DOT": 4.469e-05,
    "MEAN_MOTION_DDOT": 0.0,
    "TLE_LINE1": "1 64436U 25129AA  25315.31694433  .00004469  00000+0  38202-3 0  9991",
    "TLE_LINE2": "2 64436  70.0027  13.0118 0002965 267.5728  92.5092 14.98338335 23496",
    "COMMENT": "Grouped by shell and plane from TLE"
  },
  {
    "OBJECT_NAME": "STARLINK-34507",
    "OBJECT_ID": "25129AB",
    "EPOCH": "2025-11-11T08:00:03.000384",
    "MEAN_MOTION": 14.98356084,
    "ECCENTRICITY": 0.0003063,
    "INCLINATION": 70.0022,
    "RA_OF_ASC_NODE": 12.7482,
    "ARG_OF_PERICENTER": 272.722,
    "MEAN_ANOMALY": 18.4966,
    "EPHEMERIS_TYPE": 0,
    "CLASSIFICATION_TYPE": "U",
    "NORAD_CAT_ID": 64437,
    "ELEMENT_SET_NO": 999,
    "REV_AT_EPOCH": 573,
    "BSTAR": 0.0,
    "MEAN_MOTION_DOT": -0.00028036,
    "MEAN_MOTION_DDOT": 0.0,
    "TLE_LINE1": "1 64437U 25129AB  25315.33336806 -.00028036  00000+0 -23497-2 0  9998",
    "TLE_LINE2": "2 64437  70.0022  12.7482 0003063 272.7220  18.4966 14.98356084  5732",
    "COMMENT": "Grouped by shell and plane from TLE"
  }
]